NORAD_CAT_ID,OBJECT_NAME,OBJECT_TYPE,EPOCH,MEAN_MOTION,ECCENTRICITY,INCLINATION,RA_OF_ASC_NODE,ARG_OF_PERICENTER,MEAN_ANOMALY,BSTAR,MEAN_MOTION_DOT,MEAN_MOTION_DDOT,TLE_LINE0,TLE_LINE1,TLE_LINE2,SEMIMAJOR_AXIS,PERIOD,APOGEE,PERIGEE,DECAYED
52378.0,STARLINK-3806,PAYLOAD,2022-12-05 03:19:38,15.0883715,0.0002758,53.2181,133.7097,53.0071,307.1173,1.8061e-05,-1e-08,0.0,0 STARLINK-3806,1 52378U 22045AZ  22339.13863879 -.00000001  00000-0  18061-4 0  9994,2 52378  53.2181 133.7097 0002758  53.0071 307.1173 15.08837150 36194,6917.889,95.438,541.6619999999998,537.846,0.0
52378.0,STARLINK-3806,PAYLOAD,2022-12-05 11:16:33,15.08842866,0.0002735,53.2181,132.2225,51.982,308.1418,2.769e-05,1.52e-06,0.0,0 STARLINK-3806,1 52378U 22045AZ  22339.46983470  .00000152  00000-0  27690-4 0  9994,2 52378  53.2181 132.2225 0002735  51.9820 308.1418 15.08842866 36244,6917.871999999999,95.437,541.629,537.845,0.0
52378.0,STARLINK-3806,PAYLOAD,2022-12-05 19:13:28,15.08847766,0.000275,53.2182,130.7359,52.9485,307.1759,6.1344e-05,6.88e-06,0.0,0 STARLINK-3806,1 52378U 22045AZ  22339.80102920  .00000688  00000-0  61344-4 0  9993,2 52378  53.2182 130.7359 0002750  52.9485 307.1759 15.08847766 36297,6917.857,95.437,541.624,537.819,0.0
52378.0,STARLINK-3806,PAYLOAD,2022-12-06 11:07:20,15.08847368,0.0002914,53.2193,127.7621,60.5152,299.6131,2.1991e-05,6.1e-07,0.0,0 STARLINK-3806,1 52378U 22045AZ  22340.46342838  .00000061  00000-0  21991-4 0  9990,2 52378  53.2193 127.7621 0002914  60.5152 299.6131 15.08847368 36393,6917.858,95.437,541.739,537.707,0.0
52378.0,STARLINK-3806,PAYLOAD,2022-12-06 19:04:15,15.08845846,0.0002775,53.2187,126.2754,54.912,305.2132,-1.9086e-05,-5.92e-06,0.0,0 STARLINK-3806,1 52378U 22045AZ  22340.79462881 -.00000592  00000-0 -19086-4 0  9990,2 52378  53.2187 126.2754 0002775  54.9120 305.2132 15.08845846 36444,6917.863,95.437,541.6469999999998,537.808,0.0
52378.0,STARLINK-3806,PAYLOAD,2022-12-07 18:55:03,15.08841802,0.0002679,53.2183,121.8147,55.4632,304.6613,1.3149e-05,-7.9e-07,0.0,0 STARLINK-3806,1 52378U 22045AZ  22341.78823103 -.00000079  00000-0  13149-4 0  9991,2 52378  53.2183 121.8147 0002679  55.4632 304.6613 15.08841802 36595,6917.875,95.437,541.5930000000002,537.887,0.0
52378.0,STARLINK-3806,PAYLOAD,2022-12-08 02:51:58,15.08849079,0.0002652,53.2188,120.3291,53.5947,306.5289,4.921e-05,4.95e-06,0.0,0 STARLINK-3806,1 52378U 22045AZ  22342.11942414  .00000495  00000-0  49210-4 0  9995,2 52378  53.2188 120.3291 0002652  53.5947 306.5289 15.08849079 36643,6917.853,95.437,541.552,537.883,0.0
52378.0,STARLINK-3806,PAYLOAD,2022-12-08 15:35:03,15.08843896,0.0002537,53.2197,117.9505,49.7365,310.3849,9.4691e-05,1.219e-05,0.0,0 STARLINK-3806,1 52378U 22045AZ  22342.64934391  .00001219  00000-0  94691-4 0  9996,2 52378  53.2197 117.9505 0002537  49.7365 310.3849 15.08843896 36721,6917.868,95.437,541.489,537.9780000000002,0.0
52378.0,STARLINK-3806,PAYLOAD,2022-12-09 09:04:12,15.0891561,0.0002606,53.2188,114.6832,7.1958,352.9071,0.00063931,9.922e-05,0.0,0 STARLINK-3806,1 52378U 22045AZ  22343.37792263  .00009922  00000-0  63931-3 0  9998,2 52378  53.2188 114.6832 0002606   7.1958 352.9071 15.08915610 36836,6917.649,95.433,541.317,537.712,0.0
52378.0,STARLINK-3806,PAYLOAD,2022-12-09 20:12:01,15.08822438,0.0002588,53.219,112.6017,39.0349,321.0829,-0.00014572,-2.606e-05,0.0,0 STARLINK-3806,1 52378U 22045AZ  22343.84168212 -.00002606  00000-0 -14572-3 0  9992,2 52378  53.2190 112.6017 0002588  39.0349 321.0829 15.08822438 36900,6917.934,95.439,541.589,538.009,0.0
52378.0,STARLINK-3806,PAYLOAD,2022-12-09 23:22:48,15.08816064,0.0002495,53.2188,112.0075,38.0743,322.0425,-0.00041878,-6.943e-05,0.0,0 STARLINK-3806,1 52378U 22045AZ  22343.97417294 -.00006943  00000-0 -41878-3 0  9990,2 52378  53.2188 112.0075 0002495  38.0743 322.0425 15.08816064 36922,6917.954000000002,95.439,541.545,538.0930000000002,0.0
52378.0,STARLINK-3806,PAYLOAD,2022-12-10 13:41:15,15.08785114,7.670000000000001e-05,53.2201,109.3296,303.4443,56.6476,0.0010193,0.00015947,0.0,0 STARLINK-3806,1 52378U 22045AZ  22344.57031597  .00015947  00000-0  10193-2 0  9992,2 52378  53.2201 109.3296 0000767 303.4443  56.6476 15.08785114 37016,6918.0480000000025,95.441,540.444,539.383,0.0
52378.0,STARLINK-3806,PAYLOAD,2022-12-10 20:02:47,15.08850934,0.0002978,53.22,108.1403,36.3795,323.7399,-0.00015526,-2.7600000000000014e-05,0.0,0 STARLINK-3806,1 52378U 22045AZ  22344.83526838 -.00002760  00000-0 -15526-3 0  9995,2 52378  53.2200 108.1403 0002978  36.3795 323.7399 15.08850934 37059,6917.847,95.437,541.7719999999998,537.6519999999998,0.0
52378.0,STARLINK-3806,PAYLOAD,2022-12-11 11:56:38,15.08838213,0.0002265,53.2206,105.165,46.7337,313.3844,0.00017871,2.557e-05,0.0,0 STARLINK-3806,1 52378U 22045AZ  22345.49766758  .00002557  00000-0  17871-3 0  9992,2 52378  53.2206 105.1650 0002265  46.7337 313.3844 15.08838213 37159,6917.886,95.438,541.318,538.184,0.0
52378.0,STARLINK-3806,PAYLOAD,2022-12-11 18:18:11,15.08831564,0.0002607,53.2192,103.9751,49.1734,310.9484,0.00015188,2.129e-05,0.0,0 STARLINK-3806,1 52378U 22045AZ  22345.76263463  .00002129  00000-0  15188-3 0  9991,2 52378  53.2192 103.9751 0002607  49.1734 310.9484 15.08831564 37198,6917.906,95.438,541.575,537.9680000000002,0.0
52378.0,STARLINK-3806,PAYLOAD,2022-12-12 11:47:26,15.08838219,0.0002352,53.2188,100.7036,47.5389,312.5802,5.08e-05,5.2e-06,0.0,0 STARLINK-3806,1 52378U 22045AZ  22346.49127483  .00000520  00000-0  50800-4 0  9997,2 52378  53.2188 100.7036 0002352  47.5389 312.5802 15.08838219 37308,6917.886,95.438,541.378,538.124,0.0
52378.0,STARLINK-3806,PAYLOAD,2022-12-13 19:35:09,15.08839456,0.0002394,53.2187,94.7562,47.5945,312.525,1.9725e-06,-2.57e-06,0.0,0 STARLINK-3806,1 52378U 22045AZ  22347.81607721 -.00000257  00000-0  19725-5 0  9992,2 52378  53.2187  94.7562 0002394  47.5945 312.5250 15.08839456 37500,6917.882,95.438,541.403,538.091,0.0
52378.0,STARLINK-3806,PAYLOAD,2022-12-14 11:29:00,15.08836628,0.0001832,53.2192,91.7824,35.9352,324.1763,5.9138e-05,6.53e-06,0.0,0 STARLINK-3806,1 52378U 22045AZ  22348.47847530  .00000653  00000-0  59138-4 0  9999,2 52378  53.2192  91.7824 0001832  35.9352 324.1763 15.08836628 37600,6917.891,95.438,541.023,538.488,0.0
52378.0,STARLINK-3806,PAYLOAD,2022-12-14 19:25:55,15.08838073,0.0002056,53.2185,90.2964,39.2909,320.8232,6.1995e-05,6.99e-06,0.0,0 STARLINK-3806,1 52378U 22045AZ  22348.80967537  .00000699  00000-0  61995-4 0  9990,2 52378  53.2185  90.2964 0002056  39.2909 320.8232 15.08838073 37650,6917.886,95.438,541.174,538.3290000000002,0.0
52378.0,STARLINK-3806,PAYLOAD,2022-12-15 06:33:37,15.08839983,0.0002151,53.2191,88.2154,35.7626,324.351,5.5657e-05,5.98e-06,0.0,0 STARLINK-3806,1 52378U 22045AZ  22349.27335577  .00000598  00000-0  55657-4 0  9991,2 52378  53.2191  88.2154 0002151  35.7626 324.3510 15.08839983 37725,6917.88,95.438,541.2330000000002,538.257,0.0
52378.0,STARLINK-3806,PAYLOAD,2022-12-15 12:55:10,15.08837711,0.000218,53.2191,87.0256,36.4337,323.6804,4.7454e-05,4.67e-06,0.0,0 STARLINK-3806,1 52378U 22045AZ  22349.53831774  .00000467  00000-0  47454-4 0  9991,2 52378  53.2191  87.0256 0002180  36.4337 323.6804 15.08837711 37763,6917.887,95.438,541.26,538.244,0.0
52378.0,STARLINK-3806,PAYLOAD,2022-12-15 19:16:43,15.08833207,0.0002363,53.2191,85.8367,37.03,323.0855,-6.1247e-06,-3.86e-06,0.0,0 STARLINK-3806,1 52378U 22045AZ  22349.80328304 -.00000386  00000-0 -61247-5 0  9990,2 52378  53.2191  85.8367 0002363  37.0300 323.0855 15.08833207 37803,6917.901,95.438,541.401,538.131,0.0
52378.0,STARLINK-3806,PAYLOAD,2022-12-16 00:02:52,15.08834812,0.0002233,53.219,84.9446,36.8342,323.2803,7.4013e-06,-1.71e-06,0.0,0 STARLINK-3806,1 52378U 22045AZ  22350.00200179 -.00000171  00000-0  74013-5 0  9999,2 52378  53.2190  84.9446 0002233  36.8342 323.2803 15.08834812 37830,6917.896,95.438,541.306,538.216,0.0
52378.0,STARLINK-3806,PAYLOAD,2022-12-16 12:45:57,15.08844946,0.0001796,53.2191,82.5662,30.8186,329.2911,2.0429e-05,3.7e-07,0.0,0 STARLINK-3806,1 52378U 22045AZ  22350.53191396  .00000037  00000-0  20429-4 0  9998,2 52378  53.2191  82.5662 0001796  30.8186 329.2911 15.08844946 37912,6917.865,95.437,540.9730000000002,538.488,0.0
52378.0,STARLINK-3806,PAYLOAD,2022-12-16 17:32:06,15.08843709,0.0001661,53.2192,81.6744,32.7468,327.3627,2.098e-06,-2.55e-06,0.0,0 STARLINK-3806,1 52378U 22045AZ  22350.73063491 -.00000255  00000-0  20980-5 0  9990,2 52378  53.2192  81.6744 0001661  32.7468 327.3627 15.08843709 37941,6917.869000000002,95.437,540.883,538.585,0.0
52378.0,STARLINK-3806,PAYLOAD,2022-12-16 23:53:39,15.08837561,0.0002296,53.2193,80.4845,32.9497,327.1638,6.7e-05,7.78e-06,0.0,0 STARLINK-3806,1 52378U 22045AZ  22350.99559939  .00000778  00000-0  67000-4 0  9997,2 52378  53.2193  80.4845 0002296  32.9497 327.1638 15.08837561 37983,6917.888000000001,95.438,541.341,538.164,0.0
52378.0,STARLINK-3806,PAYLOAD,2022-12-17 12:36:45,15.08837019,0.000238,53.2193,78.1063,33.2045,326.9096,2.3532e-05,8.6e-07,0.0,0 STARLINK-3806,1 52378U 22045AZ  22351.52552209  .00000086  00000-0  23532-4 0  9994,2 52378  53.2193  78.1063 0002380  33.2045 326.9096 15.08837019 38069,6917.89,95.438,541.401,538.1080000000002,0.0
52378.0,STARLINK-3806,PAYLOAD,2022-12-17 17:22:55,15.08827918,0.0002386,53.2195,77.2143,32.4171,327.6967,3.7168e-05,3.03e-06,0.0,0 STARLINK-3806,1 52378U 22045AZ  22351.72424883  .00000303  00000-0  37168-4 0  9994,2 52378  53.2195  77.2143 0002386  32.4171 327.6967 15.08827918 38092,6917.917,95.438,541.433,538.132,0.0
52378.0,STARLINK-3806,PAYLOAD,2022-12-18 12:27:32,15.08835816,0.0002371,53.2194,73.6459,31.7338,328.3797,3.3979e-05,2.52e-06,0.0,0 STARLINK-3806,1 52378U 22045AZ  22352.51912700  .00000252  00000-0  33979-4 0  9991,2 52378  53.2194  73.6459 0002371  31.7338 328.3797 15.08835816 38211,6917.893,95.438,541.398,538.118,0.0
